NORAD_CAT_ID,OBJECT_NAME,OBJECT_TYPE,EPOCH,MEAN_MOTION,ECCENTRICITY,INCLINATION,RA_OF_ASC_NODE,ARG_OF_PERICENTER,MEAN_ANOMALY,BSTAR,MEAN_MOTION_DOT,MEAN_MOTION_DDOT,TLE_LINE0,TLE_LINE1,TLE_LINE2,SEMIMAJOR_AXIS,PERIOD,APOGEE,PERIGEE,DECAYED
50186.0,STARLINK-3274,PAYLOAD,2023-06-07 15:11:20,15.08840627,0.0001198,53.2167,95.4823,83.4514,276.6614,4.5085e-05,4.3e-06,0.0,0 STARLINK-3274,1 50186U 21125AG  23158.63287538  .00000430  00000-0  45085-4 0  9995,2 50186  53.2167  95.4823 0001198  83.4514 276.6614 15.08840627 84095,6917.878,95.438,540.572,538.915,0.0
50186.0,STARLINK-3274,PAYLOAD,2023-06-08 05:29:48,15.08852827,0.0001027,53.2171,92.805,96.4098,263.7011,-0.00012072,-2.209e-05,0.0,0 STARLINK-3274,1 50186U 21125AG  23159.22903263 -.00002209  00000-0 -12072-3 0  9998,2 50186  53.2171  92.8050 0001027  96.4098 263.7011 15.08852827 84661,6917.841,95.437,540.417,538.996,0.0
50186.0,STARLINK-3274,PAYLOAD,2023-06-08 22:59:03,15.08834447,0.0001093,53.2171,89.5343,98.3166,261.795,-3.6384e-05,-8.67e-06,0.0,0 STARLINK-3274,1 50186U 21125AG  23159.95768242 -.00000867  00000-0 -36384-4 0  9995,2 50186  53.2171  89.5343 0001093  98.3166 261.7950 15.08834447 84296,6917.897,95.438,540.518,539.006,0.0
50186.0,STARLINK-3274,PAYLOAD,2023-06-09 11:42:08,15.08840026,0.0001163,53.2175,87.1546,88.4712,271.6414,-4.0615e-05,-9.34e-06,0.0,0 STARLINK-3274,1 50186U 21125AG  23160.48759983 -.00000934  00000-0 -40615-4 0  9994,2 50186  53.2175  87.1546 0001163  88.4712 271.6414 15.08840026 84851,6917.88,95.438,540.55,538.941,0.0
50186.0,STARLINK-3274,PAYLOAD,2023-06-10 02:00:36,15.08837586,0.0001075,53.2166,84.4815,100.0763,260.0351,8.2894e-05,1.032e-05,0.0,0 STARLINK-3274,1 50186U 21125AG  23161.08375927  .00001032  00000-0  82894-4 0  9996,2 50186  53.2166  84.4815 0001075 100.0763 260.0351 15.08837586 84465,6917.888,95.438,540.496,539.009,0.0
50186.0,STARLINK-3274,PAYLOAD,2023-06-10 11:32:55,15.08840931,9.57e-05,53.2166,82.6979,100.8229,259.2871,-1.1575e-06,-3.06e-06,0.0,0 STARLINK-3274,1 50186U 21125AG  23161.48119965 -.00000306  00000-0 -11575-5 0  9992,2 50186  53.2166  82.6979 0000957 100.8229 259.2871 15.08840931 85005,6917.878,95.437,540.405,539.081,0.0
50186.0,STARLINK-3274,PAYLOAD,2023-06-10 17:54:29,15.08831706,0.0001014,53.2174,81.5066,92.4268,267.684,-2.8341e-05,-7.39e-06,0.0,0 STARLINK-3274,1 50186U 21125AG  23161.74616930 -.00000739  00000-0 -28341-4 0  9993,2 50186  53.2174  81.5066 0001014  92.4268 267.6840 15.08831706 85046,6917.906,95.438,540.472,539.069,0.0
50186.0,STARLINK-3274,PAYLOAD,2023-06-11 01:51:24,15.08835175,0.0001004,53.2166,80.0221,95.5074,264.6032,2.4479e-05,1.02e-06,0.0,0 STARLINK-3274,1 50186U 21125AG  23162.07736638  .00000102  00000-0  24479-4 0  9998,2 50186  53.2166  80.0221 0001004  95.5074 264.6032 15.08835175 84618,6917.895,95.438,540.455,539.066,0.0
50186.0,STARLINK-3274,PAYLOAD,2023-06-11 12:59:06,15.08836752,9.45e-05,53.2172,77.94,99.1812,260.9287,5.7937e-05,6.34e-06,0.0,0 STARLINK-3274,1 50186U 21125AG  23162.54104518  .00000634  00000-0  57937-4 0  9991,2 50186  53.2172  77.9400 0000945  99.1812 260.9287 15.08836752 85166,6917.89,95.438,540.409,539.102,0.0
50186.0,STARLINK-3274,PAYLOAD,2023-06-11 20:56:01,15.08839744,9.46e-05,53.2174,76.453,98.1997,261.9103,8.4587e-05,1.059e-05,0.0,0 STARLINK-3274,1 50186U 21125AG  23162.87224319  .00001059  00000-0  84587-4 0  9992,2 50186  53.2174  76.4530 0000946  98.1997 261.9103 15.08839744 85218,6917.881,95.438,540.401,539.092,0.0
50186.0,STARLINK-3274,PAYLOAD,2023-06-12 03:17:33,15.08849378,9.51e-05,53.2174,75.2635,95.6659,264.4442,9.827e-05,1.277e-05,0.0,0 STARLINK-3274,1 50186U 21125AG  23163.13719635  .00001277  00000-0  98270-4 0  9998,2 50186  53.2174  75.2635 0000951  95.6659 264.4442 15.08849378 84772,6917.852,95.437,540.375,539.059,0.0
50186.0,STARLINK-3274,PAYLOAD,2023-06-12 11:14:30,15.0883961,0.0001041,53.2175,73.7734,82.3705,277.7405,8.6175e-06,-1.51e-06,0.0,0 STARLINK-3274,1 50186U 21125AG  23163.46840465 -.00000151  00000-0  86175-5 0  9993,2 50186  53.2175  73.7734 0001041  82.3705 277.7405 15.08839610 85306,6917.882,95.438,540.467,539.026,0.0
50186.0,STARLINK-3274,PAYLOAD,2023-06-12 14:25:16,15.08834837,0.0001117,53.2177,73.1825,87.4802,272.6318,5.6367e-05,6.09e-06,0.0,0 STARLINK-3274,1 50186U 21125AG  23163.60088720  .00000609  00000-0  56367-4 0  9993,2 50186  53.2177  73.1825 0001117  87.4802 272.6318 15.08834837 84842,6917.896,95.438,540.534,538.988,0.0
50186.0,STARLINK-3274,PAYLOAD,2023-06-12 23:57:35,15.08835923,0.0001164,53.2172,71.3974,82.1797,277.9328,7.8381e-05,9.6e-06,0.0,0 STARLINK-3274,1 50186U 21125AG  23163.99832711  .00000960  00000-0  78381-4 0  9992,2 50186  53.2172  71.3974 0001164  82.1797 277.9328 15.08835923 85385,6917.893,95.438,540.563,538.953,0.0
50186.0,STARLINK-3274,PAYLOAD,2023-06-13 01:32:58,15.0883884,0.0001051,53.2177,71.1006,87.7926,272.3186,5.7394e-05,6.26e-06,0.0,0 STARLINK-3274,1 50186U 21125AG  23164.06456576  .00000626  00000-0  57394-4 0  9992,2 50186  53.2177  71.1006 0001051  87.7926 272.3186 15.08838840 85397,6917.884,95.438,540.476,539.022,0.0
50186.0,STARLINK-3274,PAYLOAD,2023-06-13 23:48:22,15.08837899,0.000107,53.2177,66.9374,87.2176,272.8938,2.4322e-05,9.9e-07,0.0,0 STARLINK-3274,1 50186U 21125AG  23164.99192812  .00000099  00000-0  24322-4 0  9993,2 50186  53.2177  66.9374 0001070  87.2176 272.8938 15.08837899 85056,6917.887,95.438,540.492,539.012,0.0
50186.0,STARLINK-3274,PAYLOAD,2023-06-14 02:59:08,15.08846974,0.0001059,53.218,66.3422,85.9106,274.2007,5.7313e-05,6.25e-06,0.0,0 STARLINK-3274,1 50186U 21125AG  23165.12440138  .00000625  00000-0  57313-4 0  9997,2 50186  53.2180  66.3422 0001059  85.9106 274.2007 15.08846974 85072,6917.859,95.437,540.457,538.991,0.0
50186.0,STARLINK-3274,PAYLOAD,2023-06-14 23:39:09,15.08833261,9.48e-05,53.2192,62.4725,100.2211,259.8889,0.00012745,1.741e-05,0.0,0 STARLINK-3274,1 50186U 21125AG  23165.98552719  .00001741  00000-0  12745-3 0  9999,2 50186  53.2192  62.4725 0000948 100.2211 259.8889 15.08833261 85209,6917.901,95.438,540.422,539.11,0.0
50186.0,STARLINK-3274,PAYLOAD,2023-06-15 23:29:56,15.08844782,0.0001065,53.2183,58.0155,90.9695,269.1419,4.4852e-05,4.26e-06,0.0,0 STARLINK-3274,1 50186U 21125AG  23166.97912375  .00000426  00000-0  44852-4 0  9991,2 50186  53.2183  58.0155 0001065  90.9695 269.1419 15.08844782 85358,6917.866,95.437,540.468,538.994,0.0
50186.0,STARLINK-3274,PAYLOAD,2023-06-16 16:59:10,15.08843037,0.000103,53.2185,54.7433,96.5131,263.5979,9.237e-05,1.183e-05,0.0,0 STARLINK-3274,1 50186U 21125AG  23167.70776089  .00001183  00000-0  92370-4 0  9992,2 50186  53.2185  54.7433 0001030  96.5131 263.5979 15.08843037 85947,6917.871,95.437,540.449,539.024,0.0
50186.0,STARLINK-3274,PAYLOAD,2023-06-16 23:20:42,15.08851957,9.23e-05,53.2178,53.5576,101.4463,258.6632,0.00014579,2.034e-05,0.0,0 STARLINK-3274,1 50186U 21125AG  23167.97271275  .00002034  00000-0  14579-3 0  9998,2 50186  53.2178  53.5576 0000923 101.4463 258.6632 15.08851957 85501,6917.844,95.437,540.347,539.07,0.0
50186.0,STARLINK-3274,PAYLOAD,2023-06-17 08:53:02,15.0883942,0.0001003,53.2183,51.7716,98.5122,261.5984,4.3835e-05,4.1e-06,0.0,0 STARLINK-3274,1 50186U 21125AG  23168.37016307  .00000410  00000-0  43835-4 0  9990,2 50186  53.2183  51.7716 0001003  98.5122 261.5984 15.08839420 85561,6917.882,95.438,540.441,539.053,0.0
50186.0,STARLINK-3274,PAYLOAD,2023-06-17 15:14:35,15.08835306,0.0001572,53.2183,50.586,101.4285,258.6884,-4.1252e-05,-9.44e-06,0.0,0 STARLINK-3274,1 50186U 21125AG  23168.63513142 -.00000944  00000-0 -41252-4 0  9993,2 50186  53.2183  50.5860 0001572 101.4285 258.6884 15.08835306 85603,6917.895,95.438,540.847,538.672,0.0
50186.0,STARLINK-3274,PAYLOAD,2023-06-18 02:22:18,15.08822452,9.11e-05,53.2183,48.5007,93.2385,266.8712,-0.00013706,-2.467e-05,0.0,0 STARLINK-3274,1 50186U 21125AG  23169.09882663 -.00002467  00000-0 -13706-3 0  9995,2 50186  53.2183  48.5007 0000911  93.2385 266.8712 15.08822452 85674,6917.934,95.439,540.429,539.169,0.0
50186.0,STARLINK-3274,PAYLOAD,2023-06-18 18:16:09,15.08836932,9.02e-05,53.2181,45.5271,102.3646,257.7447,-4.3571e-05,-9.81e-06,0.0,0 STARLINK-3274,1 50186U 21125AG  23169.76121974 -.00000981  00000-0 -43571-4 0  9993,2 50186  53.2181  45.5271 0000902 102.3646 257.7447 15.08836932 85777,6917.89,95.438,540.379,539.131,0.0
50186.0,STARLINK-3274,PAYLOAD,2023-06-19 00:37:41,15.08844475,8.38e-05,53.218,44.3375,92.0884,268.0204,2.4819e-05,1.07e-06,0.0,0 STARLINK-3274,1 50186U 21125AG  23170.02617410  .00000107  00000-0  24819-4 0  9991,2 50186  53.2180  44.3375 0000838  92.0884 268.0204 15.08844475 85817,6917.867,95.437,540.311,539.152,0.0
50186.0,STARLINK-3274,PAYLOAD,2023-06-19 08:34:36,15.0885051,8.29e-05,53.2181,42.8506,96.4649,263.6437,2.0016e-05,3.1e-07,0.0,0 STARLINK-3274,1 50186U 21125AG  23170.35737007  .00000031  00000-0  20016-4 0  9993,2 50186  53.2181  42.8506 0000829  96.4649 263.6437 15.08850510 86349,6917.848,95.437,540.287,539.14,0.0
50186.0,STARLINK-3274,PAYLOAD,2023-06-20 08:25:24,15.08843627,0.0001222,53.2168,38.3899,70.4734,289.639,0.00015599,2.196e-05,0.0,0 STARLINK-3274,1 50186U 21125AG  23171.35097785  .00002196  00000-0  15599-3 0  9999,2 50186  53.2168  38.3899 0001222  70.4734 289.6390 15.08843627 86015,6917.869,95.437,540.58,538.889,0.0
50186.0,STARLINK-3274,PAYLOAD,2023-06-20 21:08:29,15.08841349,0.0001091,53.218,36.0104,68.9556,291.1553,-3.5138e-07,-2.93e-06,0.0,0 STARLINK-3274,1 50186U 21125AG  23171.88089801 -.00000293  00000-0 -35138-6 0  9999,2 50186  53.2180  36.0104 0001091  68.9556 291.1553 15.08841349 86570,6917.876,95.437,540.496,538.987,0.0
50186.0,STARLINK-3274,PAYLOAD,2023-06-20 22:43:52,15.0884495,9.39e-05,53.2176,35.7133,70.4677,289.6416,6.2177e-05,7.02e-06,0.0,0 STARLINK-3274,1 50186U 21125AG  23171.94713589  .00000702  00000-0  62177-4 0  9997,2 50186  53.2176  35.7133 0000939  70.4677 289.6416 15.08844950 86587,6917.865,95.437,540.38,539.081,0.0
